     2              NAVIGATION DATA                         RINEX VERSION / TYPE
CCRINEXN V1.5.9 UX  CDDIS               02-APR-00 07:08     PGM / RUN BY / DATE 
IGS BROADCAST EPHEMERIS FILE                                COMMENT             
    0.4191D-07  0.1490D-07 -0.2384D-06 -0.5961D-07          ION ALPHA           
    0.1495D+06  0.0000D+00 -0.3932D+06  0.3932D+06          ION BETA            
   -0.239808173319D-13-0.139698386192D-07    61440     1108 DELTA-UTC: A0,A1,T,W
    13                                                      LEAP SECONDS        
                                                            END OF HEADER       
24 01  3 31 20  0  0.0 0.397972762585D-04 0.284217094304D-11 0.000000000000D+00
    0.680000000000D+02 0.494062500000D+02 0.417160233541D-08 0.270404127600D+01
    0.260397791863D-05 0.918119563721D-02 0.383704900742D-05 0.515373974609D+04
    0.590400000000D+06 0.968575477600D-07 0.276047267236D+01-0.173225998879D-06
    0.984637533603D+00 0.312593750000D+03-0.163532199914D+01-0.799426156451D-08
   -0.467876631797D-10 0.100000000000D+01 0.110700000000D+04 0.000000000000D+00
    0.280000000000D+01 0.000000000000D+00-0.931322574616D-09 0.324000000000D+03
    0.583218000000D+06 0.000000000000D+00 0.000000000000D+00 0.000000000000D+00
25 01  3 31 20  0  0.0 0.124927610159D-04 0.227373675443D-12 0.000000000000D+00
    0.450000000000D+02-0.475000000000D+01 0.505021036153D-08-0.269854716427D+01
   -0.204890966415D-06 0.891258381307D-02 0.742450356484D-05 0.515366689873D+04
    0.590400000000D+06 0.670552253723D-07-0.483204357801D+00-0.577419996262D-07
    0.937536344952D+00 0.222750000000D+03-0.200467389869D+01-0.811962392921D-08
    0.281083136812D-09 0.100000000000D+01 0.110700000000D+04 0.000000000000D+00
    0.340000000000D+01 0.000000000000D+00-0.745058059692D-08 0.301000000000D+03
    0.583206000000D+06 0.000000000000D+00 0.000000000000D+00 0.000000000000D+00
26 01  3 31 20  0  0.0 0.408371444792D-03 0.197815097636D-10 0.000000000000D+00
    0.161000000000D+03-0.631562500000D+02 0.415303013323D-08-0.168778477231D+01
   -0.330246984959D-05 0.127438930795D-01 0.899285078049D-05 0.515366438103D+04
    0.590400000000D+06-0.447034835815D-07-0.146337086412D+01-0.150874257088D-06
    0.966383335436D+00 0.210312500000D+03 0.198841895363D+00-0.773032199894D-08
    0.335013954676D-09 0.000000000000D+00 0.110700000000D+04 0.000000000000D+00
    0.100000000000D+01 0.000000000000D+00-0.605359673500D-08 0.417000000000D+03
    0.583830000000D+06 0.000000000000D+00 0.000000000000D+00 0.000000000000D+00
27 01  3 31 20  0  0.0 0.160862691700D-04 0.113686837722D-11 0.000000000000D+00
    0.540000000000D+02-0.890625000000D+01 0.505199615020D-08 0.204241854565D+01
   -0.478699803352D-06 0.149416127242D-01 0.799261033535D-05 0.515372237968D+04
    0.590400000000D+06-0.314787030220D-06-0.460453740478D+00 0.186264514923D-08
    0.942049356526D+00 0.218281250000D+03-0.260582161886D+01-0.822177104119D-08
    0.175007289756D-09 0.000000000000D+00 0.110700000000D+04 0.000000000000D+00
    0.100000000000D+01 0.000000000000D+00-0.419095158577D-08 0.540000000000D+02
    0.583350000000D+06 0.000000000000D+00 0.000000000000D+00 0.000000000000D+00
28 01  3 31 20  0  0.0 0.129230320454D-04-0.125055521494D-11 0.000000000000D+00
    0.700000000000D+01 0.150000000000D+02 0.452125975719D-08 0.205909457266D+01
    0.858679413795D-06 0.486752705183D-02 0.866688787937D-05 0.515485890388D+04
    0.590400000000D+06-0.128522515297D-06 0.625603097874D+00-0.298023223877D-07
    0.960219491030D+00 0.208125000000D+03-0.245758124063D+01-0.795033116320D-08
   -0.165721188667D-09 0.000000000000D+00 0.110700000000D+04 0.000000000000D+00
    0.200000000000D+01 0.000000000000D+00-0.107102096081D-07 0.263000000000D+03
    0.583830000000D+06 0.000000000000D+00 0.000000000000D+00 0.000000000000D+00
29 01  3 31 20  0  0.0 0.498086679727D-03 0.151203494170D-10 0.000000000000D+00
    0.135000000000D+03-0.481250000000D+02 0.432660879205D-08-0.162399207898D+01
   -0.256299972534D-05 0.831233093049D-02 0.911392271519D-05 0.515384788513D+04
    0.590400000000D+06 0.223517417908D-06-0.149244812229D+01 0.128522515297D-06
    0.963217727005D+00 0.206625000000D+03-0.185150348653D+01-0.788497129785D-08
    0.882179603464D-10 0.100000000000D+01 0.110700000000D+04 0.000000000000D+00
    0.200000000000D+01 0.000000000000D+00-0.698491930962D-08 0.135000000000D+03
    0.589188000000D+06 0.000000000000D+00 0.000000000000D+00 0.000000000000D+00
30 01  3 31 20  0  0.0-0.138180330396D-04-0.147792889038D-11 0.000000000000D+00
    0.217000000000D+03 0.559375000000D+01 0.506985403691D-08 0.347243526669D+00
    0.428408384323D-07 0.577755004633D-02 0.807084143162D-05 0.515373993301D+04
    0.590400000000D+06-0.763684511185D-07 0.604808232325D+00-0.223517417908D-07
    0.943667560433D+00 0.214531250000D+03 0.139525086349D+01-0.834391898629D-08
   -0.201436962087D-09 0.100000000000D+01 0.110700000000D+04 0.000000000000D+00
    0.280000000000D+01 0.000000000000D+00-0.745058059692D-08 0.473000000000D+03
    0.583758000000D+06 0.000000000000D+00 0.000000000000D+00 0.000000000000D+00
31 01  3 31 20  0  0.0 0.372943468392D-04 0.170530256582D-11 0.000000000000D+00
    0.179000000000D+03 0.800937500000D+02 0.488520348833D-08-0.246290800916D+01
    0.382773578167D-05 0.102364894701D-01 0.778585672379D-05 0.515361348915D+04
    0.590400000000D+06 0.176951289177D-06 0.164558458305D+01-0.128522515297D-06
    0.946070002539D+00 0.220906250000D+03 0.861764337727D+00-0.808640825993D-08
    0.242867259253D-10 0.000000000000D+00 0.110700000000D+04 0.000000000000D+00
    0.100000000000D+01 0.000000000000D+00-0.558793544769D-08 0.179000000000D+03
    0.589500000000D+06 0.000000000000D+00 0.000000000000D+00 0.000000000000D+00
 1 01  3 31 21 59 44.0 0.170937739313D-03 0.170530256582D-11 0.000000000000D+00
    0.930000000000D+02-0.472187500000D+02 0.427482092059D-08-0.247096181791D+01
   -0.253133475781D-05 0.521209184080D-02 0.927224755287D-05 0.515358777809D+04
    0.597584000000D+06 0.279396772385D-07-0.144680905443D+01-0.726431608200D-07
    0.963484852920D+00 0.201781250000D+03-0.170107257426D+01-0.776568061463D-08
    0.127505311108D-09 0.100000000000D+01 0.110700000000D+04 0.000000000000D+00
    0.240000000000D+01 0.000000000000D+00-0.325962901115D-08 0.930000000000D+02
    0.596406000000D+06 0.000000000000D+00 0.000000000000D+00 0.000000000000D+00
 5 01  3 31 21 59 44.0 0.293116085231D-03 0.125055521494D-11 0.000000000000D+00
    0.370000000000D+02 0.122812500000D+02 0.510806991447D-08 0.286604955664D+01
    0.705942511559D-06 0.272044877056D-02 0.798888504505D-05 0.515371420479D+04
    0.597584000000D+06 0.186264514923D-08 0.571469442579D+00-0.558793544769D-07
    0.936514575671D+00 0.211781250000D+03 0.421466673767D+00-0.824498629392D-08
   -0.148577617426D-09 0.100000000000D+01 0.110700000000D+04 0.000000000000D+00
    0.200000000000D+01 0.000000000000D+00-0.465661287308D-08 0.370000000000D+02
    0.590418000000D+06 0.000000000000D+00 0.000000000000D+00 0.000000000000D+00
 8 01  3 31 21 59 44.0 0.624447129667D-04 0.461568561150D-10 0.000000000000D+00
    0.530000000000D+02-0.271875000000D+01 0.469519557374D-08-0.196373419622D+01
    0.558793544769D-08 0.783084298018D-02 0.782124698162D-05 0.515362541199D+04
    0.597584000000D+06-0.931322574615D-08-0.390772895500D+00 0.204890966415D-06
    0.958726697238D+00 0.227875000000D+03 0.199324814861D+01-0.800890503161D-08
    0.141434462742D-09 0.000000000000D+00 0.110700000000D+04 0.000000000000D+00
    0.000000000000D+00 0.000000000000D+00-0.465661287308D-08 0.530000000000D+02
    0.591150000000D+06 0.000000000000D+00 0.000000000000D+00 0.000000000000D+00
10 01  3 31 21 59 44.0 0.180490314961D-05 0.568434188608D-12 0.000000000000D+00
    0.108000000000D+03-0.801250000000D+02 0.431160816722D-08 0.885612709758D+00
   -0.401586294174D-05 0.454767292831D-02 0.479072332382D-05 0.515381793022D+04
    0.597584000000D+06 0.465661287308D-07-0.251443679545D+01 0.447034835815D-07
    0.977770324036D+00 0.290906250000D+03-0.152885472294D-01-0.815855412224D-08
   -0.238224208709D-09 0.100000000000D+01 0.110700000000D+04 0.000000000000D+00
    0.200000000000D+01 0.000000000000D+00-0.186264514923D-08 0.108000000000D+03
    0.597228000000D+06 0.000000000000D+00 0.000000000000D+00 0.000000000000D+00
20 01  3 31 21 59 44.0-0.626686960459D-04-0.193267624127D-11 0.000000000000D+00
    0.000000000000D+00-0.673750000000D+02 0.457197615544D-08 0.104989868509D+01
   -0.366196036339D-05 0.201687763911D-02 0.576116144657D-05 0.515359539604D+04
    0.597584000000D+06-0.372529029846D-07-0.251596462467D+01-0.465661287308D-07
    0.961152654289D+00 0.266250000000D+03 0.213386746682D+01-0.819534136886D-08
   -0.122862260564D-09 0.100000000000D+01 0.110700000000D+04 0.000000000000D+00
    0.340000000000D+01 0.000000000000D+00-0.651925802231D-08 0.256000000000D+03
    0.590406000000D+06 0.000000000000D+00 0.000000000000D+00 0.000000000000D+00
23 01  3 31 21 59 44.0 0.104382634163D-04 0.568434188608D-12 0.000000000000D+00
    0.260000000000D+02-0.729062500000D+02 0.423017620382D-08 0.121071072006D+01
   -0.400096178055D-05 0.154256947571D-01 0.578537583351D-05 0.515364622498D+04
    0.597584000000D+06-0.264495611191D-06-0.246665275467D+01-0.139698386192D-06
    0.980529709375D+00 0.286062500000D+03-0.182971489291D+01-0.819641284207D-08
   -0.176435920693D-09 0.000000000000D+00 0.110700000000D+04 0.000000000000D+00
    0.000000000000D+00 0.000000000000D+00-0.279396772385D-08 0.260000000000D+02
    0.592200000000D+06 0.000000000000D+00 0.000000000000D+00 0.000000000000D+00
